COMMENT,ORIGINATOR,NORAD_CAT_ID,OBJECT_NAME,OBJECT_TYPE,CLASSIFICATION_TYPE,INTLDES,EPOCH,EPOCH_MICROSECONDS,MEAN_MOTION,ECCENTRICITY,INCLINATION,RA_OF_ASC_NODE,ARG_OF_PERICENTER,MEAN_ANOMALY,EPHEMERIS_TYPE,ELEMENT_SET_NO,REV_AT_EPOCH,BSTAR,MEAN_MOTION_DOT,MEAN_MOTION_DDOT,FILE,TLE_LINE0,TLE_LINE1,TLE_LINE2,OBJECT_ID,OBJECT_NUMBER,SEMIMAJOR_AXIS,PERIOD,APOGEE,PERIGEE,DECAYED
GENERATED VIA SPACETRACK.ORG API,18 SPCS,44336,ARIANE 5 DEB (SYLDA),DEBRIS,U,19034D,2024-07-25 11:05:26,521728,3.90063807,0.6134825,5.8163,151.7062,339.0683,3.9817,0,999,5193,0.010731,0.00225826,0,4398706,0 ARIANE 5 DEB (SYLDA),1 44336U 19034D   24207.46211252  .00225826  00000-0  10731-1 0  9993,2 44336   5.8163 151.7062 6134825 339.0683   3.9817  3.90063807 51930,2019-034D,44336,17046.873,369.17,21126.697,210.78,0
GENERATED VIA SPACETRACK.ORG API,18 SPCS,44336,ARIANE 5 DEB (SYLDA),DEBRIS,U,19034D,2024-07-25 23:23:23,596224,3.9030678,0.613319,5.8166,151.281,339.9096,3.8188,0,999,5192,0.01161,0.00244247,0,4398930,0 ARIANE 5 DEB (SYLDA),1 44336U 19034D   24207.97457866  .00244247  00000-0  11610-1 0  9997,2 44336   5.8166 151.2810 6133190 339.9096   3.8188  3.90306780 51929,2019-034D,44336,17039.798,368.941,21112.495,210.831,0
GENERATED VIA SPACETRACK.ORG API,18 SPCS,44336,ARIANE 5 DEB (SYLDA),DEBRIS,U,19034D,2024-07-26 05:32:11,565888,3.90436564,0.6132192,5.817,151.069,340.3285,3.738,0,999,5193,0.012557,0.0026265,0,4399519,0 ARIANE 5 DEB (SYLDA),1 44336U 19034D   24208.23068942  .00262650  00000-0  12557-1 0  9999,2 44336   5.8170 151.0690 6132192 340.3285   3.7380  3.90436564 51933,2019-034D,44336,17036.022,368.818,21104.702,211.071,0
GENERATED VIA SPACETRACK.ORG API,18 SPCS,44336,ARIANE 5 DEB (SYLDA),DEBRIS,U,19034D,2024-07-26 05:32:11,565888,3.90436564,0.6132192,5.817,151.069,340.3285,3.738,0,999,5196,0.012557,0.0026265,0,4400028,0 ARIANE 5 DEB (SYLDA),1 44336U 19034D   24208.23068942  .00262650  00000-0  12557-1 0  9999,2 44336   5.8170 151.0690 6132192 340.3285   3.7380  3.90436564 51966,2019-034D,44336,17036.022,368.818,21104.702,211.071,0
GENERATED VIA SPACETRACK.ORG API,18 SPCS,44336,ARIANE 5 DEB (SYLDA),DEBRIS,U,19034D,2024-07-26 11:40:52,99968,3.9056608,0.6131403,5.8172,150.8552,340.7495,3.656,0,999,5194,0.011569,0.00242838,0,4400257,0 ARIANE 5 DEB (SYLDA),1 44336U 19034D   24208.48671412  .00242838  00000-0  11569-1 0  9996,2 44336   5.8172 150.8552 6131403 340.7495   3.6560  3.90566080 51947,2019-034D,44336,17032.255,368.696,21097.283,210.958,0
GENERATED VIA SPACETRACK.ORG API,18 SPCS,44336,ARIANE 5 DEB (SYLDA),DEBRIS,U,19034D,2024-07-26 17:49:25,264992,3.90694822,0.6130531,5.8174,150.6417,341.1701,3.5743,0,999,5198,0.011648,0.00244386,0,4400718,0 ARIANE 5 DEB (SYLDA),1 44336U 19034D   24208.74265353  .00244386  00000-0  11648-1 0  9996,2 44336   5.8174 150.6417 6130531 341.1701   3.5743  3.90694822 51985,2019-034D,44336,17028.513,368.574,21089.761,210.996,0
GENERATED VIA SPACETRACK.ORG API,18 SPCS,44336,ARIANE 5 DEB (SYLDA),DEBRIS,U,19034D,2024-07-26 23:57:51,261408,3.90820572,0.6129668,5.8175,150.4304,341.5908,3.4925,0,999,5196,0.011693,0.00245097,0,4400844,0 ARIANE 5 DEB (SYLDA),1 44336U 19034D   24208.99850997  .00245097  00000-0  11693-1 0  9997,2 44336   5.8175 150.4304 6129668 341.5908   3.4925  3.90820572 51963,2019-034D,44336,17024.861,368.456,21082.4,211.051,0
GENERATED VIA SPACETRACK.ORG API,18 SPCS,44336,ARIANE 5 DEB (SYLDA),DEBRIS,U,19034D,2024-07-27 06:06:10,161792,3.90944633,0.612881,5.8178,150.2155,342.0129,3.4102,0,999,5200,0.011392,0.00238492,0,4401714,0 ARIANE 5 DEB (SYLDA),1 44336U 19034D   24209.25428428  .00238492  00000-0  11392-1 0  9994,2 44336   5.8178 150.2155 6128810 342.0129   3.4102  3.90944633 52005,2019-034D,44336,17021.259,368.339,21075.13,211.118,0
GENERATED VIA SPACETRACK.ORG API,18 SPCS,44336,ARIANE 5 DEB (SYLDA),DEBRIS,U,19034D,2024-07-27 06:06:10,153152,3.90944797,0.6128856,5.8178,150.2151,342.0126,3.41,0,999,5197,0.011411,0.00239392,0,4401775,0 ARIANE 5 DEB (SYLDA),1 44336U 19034D   24209.25428418  .00239392  00000-0  11411-1 0  9995,2 44336   5.8178 150.2151 6128856 342.0126   3.4100  3.90944797 51972,2019-034D,44336,17021.254,368.338,21075.2,211.037,0
GENERATED VIA SPACETRACK.ORG API,18 SPCS,44336,ARIANE 5 DEB (SYLDA),DEBRIS,U,19034D,2024-07-27 18:22:26,502528,3.91199994,0.612709,5.8183,149.7897,342.8516,3.2462,0,999,5202,0.011592,0.00242548,0,4401937,0 ARIANE 5 DEB (SYLDA),1 44336U 19034D   24209.76558452  .00242548  00000-0  11592-1 0  9990,2 44336   5.8183 149.7897 6127090 342.8516   3.2462  3.91199994 52026,2019-034D,44336,17013.851,368.098,21060.255,211.176,0
GENERATED VIA SPACETRACK.ORG API,18 SPCS,44336,ARIANE 5 DEB (SYLDA),DEBRIS,U,19034D,2024-07-28 00:30:23,953248,3.91322041,0.6126284,5.8185,149.5764,343.2727,3.1636,0,999,5200,0.011069,0.00231709,0,4402096,0 ARIANE 5 DEB (SYLDA),1 44336U 19034D   24210.02111057  .00231709  00000-0  11069-1 0  9993,2 44336   5.8185 149.5764 6126284 343.2727   3.1636  3.91322041 52003,2019-034D,44336,17010.313,367.983,21053.179,211.177,0
GENERATED VIA SPACETRACK.ORG API,18 SPCS,44336,ARIANE 5 DEB (SYLDA),DEBRIS,U,19034D,2024-07-28 12:45:58,761504,3.91556601,0.6124715,5.8189,149.1502,344.1145,2.9984,0,999,5202,0.010733,0.0022466,0,4403676,0 ARIANE 5 DEB (SYLDA),1 44336U 19034D   24210.53193011  .00224660  00000-0  10733-1 0  9994,2 44336   5.8189 149.1502 6124715 344.1145   2.9984  3.91556601 52020,2019-034D,44336,17003.519,367.763,21039.555,211.213,0
GENERATED VIA SPACETRACK.ORG API,18 SPCS,44336,ARIANE 5 DEB (SYLDA),DEBRIS,U,19034D,2024-07-28 18:53:36,358368,3.91673867,0.6123868,5.8192,148.9383,344.5335,2.9163,0,999,5206,0.011046,0.00230558,0,4404078,0 ARIANE 5 DEB (SYLDA),1 44336U 19034D   24210.78722637  .00230558  00000-0  11046-1 0  9994,2 44336   5.8192 148.9383 6123868 344.5335   2.9163  3.91673867 52068,2019-034D,44336,17000.125,367.653,21032.642,211.338,0
GENERATED VIA SPACETRACK.ORG API,18 SPCS,44336,ARIANE 5 DEB (SYLDA),DEBRIS,U,19034D,2024-07-29 01:01:07,146912,3.91794567,0.6123168,5.8195,148.725,344.9542,2.8336,0,999,5204,0.011272,0.00236393,0,4404244,0 ARIANE 5 DEB (SYLDA),1 44336U 19034D   24211.04244383  .00236393  00000-0  11272-1 0  9995,2 44336   5.8195 148.7250 6123168 344.9542   2.8336  3.91794567 52049,2019-034D,44336,16996.633,367.54,21025.822,211.174,0
GENERATED VIA SPACETRACK.ORG API,18 SPCS,44336,ARIANE 5 DEB (SYLDA),DEBRIS,U,19034D,2024-07-29 07:08:31,221312,3.91914815,0.6122381,5.8197,148.5107,345.3779,2.7503,0,999,5208,0.011108,0.0023312,0,4405367,0 ARIANE 5 DEB (SYLDA),1 44336U 19034D   24211.29758358  .00233120  00000-0  11108-1 0  9997,2 44336   5.8197 148.5107 6122381 345.3779   2.7503  3.91914815 52082,2019-034D,44336,16993.156,367.427,21018.879,211.164,0
GENERATED VIA SPACETRACK.ORG API,18 SPCS,44336,ARIANE 5 DEB (SYLDA),DEBRIS,U,19034D,2024-07-29 13:15:48,537504,3.92033322,0.6121565,5.8199,148.2986,345.7963,2.6683,0,999,5209,0.011112,0.00232948,0,4405987,0 ARIANE 5 DEB (SYLDA),1 44336U 19034D   24211.55264511  .00232948  00000-0  11112-1 0  9991,2 44336   5.8199 148.2986 6121565 345.7963   2.6683  3.92033322 52093,2019-034D,44336,16989.732,367.316,21011.971,211.222,0
GENERATED VIA SPACETRACK.ORG API,18 SPCS,44336,ARIANE 5 DEB (SYLDA),DEBRIS,U,19034D,2024-07-29 19:22:59,192256,3.92151822,0.6120797,5.8201,148.0854,346.2175,2.5857,0,999,5207,0.010928,0.00229326,0,4406078,0 ARIANE 5 DEB (SYLDA),1 44336U 19034D   24211.80762954  .00229326  00000-0  10928-1 0  9993,2 44336   5.8201 148.0854 6120797 346.2175   2.5857  3.92151822 52072,2019-034D,44336,16986.309,367.205,21005.149,211.199,0
GENERATED VIA SPACETRACK.ORG API,18 SPCS,44336,ARIANE 5 DEB (SYLDA),DEBRIS,U,19034D,2024-07-30 07:37:00,345504,3.92394684,0.6119207,5.8195,147.6593,347.0602,2.4208,0,999,5210,0.011553,0.00242788,0,4406628,0 ARIANE 5 DEB (SYLDA),1 44336U 19034D   24212.31736511  .00242788  00000-0  11553-1 0  9992,2 44336   5.8195 147.6593 6119207 347.0602   2.4208  3.92394684 52105,2019-034D,44336,16979.299,366.977,20991.149,211.18,0
GENERATED VIA SPACETRACK.ORG API,18 SPCS,44336,ARIANE 5 DEB (SYLDA),DEBRIS,U,19034D,2024-07-30 13:43:50,550240,3.92523833,0.6118406,5.821,147.4455,347.4824,2.3384,0,999,5211,0.012377,0.00260826,0,4407332,0 ARIANE 5 DEB (SYLDA),1 44336U 19034D   24212.57211285  .00260826  00000-0  12377-1 0  9994,2 44336   5.8210 147.4455 6118406 347.4824   2.3384  3.92523833 52113,2019-034D,44336,16975.575,366.857,20983.786,211.094,0
GENERATED VIA SPACETRACK.ORG API,18 SPCS,44336,ARIANE 5 DEB (SYLDA),DEBRIS,U,19034D,2024-07-30 13:43:50,550240,3.92523833,0.6118406,5.821,147.4455,347.4824,2.3384,0,999,5213,0.012377,0.00260826,0,4407788,0 ARIANE 5 DEB (SYLDA),1 44336U 19034D   24212.57211285  .00260826  00000-0  12377-1 0  9994,2 44336   5.8210 147.4455 6118406 347.4824   2.3384  3.92523833 52135,2019-034D,44336,16975.575,366.857,20983.786,211.094,0
GENERATED VIA SPACETRACK.ORG API,18 SPCS,44336,ARIANE 5 DEB (SYLDA),DEBRIS,U,19034D,2024-07-30 19:50:33,418752,3.92651557,0.6117554,5.8212,147.2328,347.9039,2.2563,0,999,5212,0.011639,0.00245274,0,4407999,0 ARIANE 5 DEB (SYLDA),1 44336U 19034D   24212.82677568  .00245274  00000-0  11639-1 0  9992,2 44336   5.8212 147.2328 6117554 347.9039   2.2563  3.92651557 52122,2019-034D,44336,16971.893,366.737,20976.406,211.111,0
GENERATED VIA SPACETRACK.ORG API,18 SPCS,44336,ARIANE 5 DEB (SYLDA),DEBRIS,U,19034D,2024-07-31 08:03:38,53440,3.92906668,0.6115854,5.8215,146.8071,348.7449,2.0932,0,999,5216,0.01197,0.0025229,0,4408741,0 ARIANE 5 DEB (SYLDA),1 44336U 19034D   24213.33585710  .00252290  00000-0  11970-1 0  9990,2 44336   5.8215 146.8071 6115854 348.7449   2.0932  3.92906668 52168,2019-034D,44336,16964.546,366.499,20961.68,211.142,0
